[{"OBJECT_NAME":"STARLINK-2354","OBJECT_ID":"2021-021AL","EPOCH":"2026-03-09T20:56:32.630496","MEAN_MOTION":15.29905417,"ECCENTRICITY":0.00010447,"INCLINATION":53.1533,"RA_OF_ASC_NODE":267.2753,"ARG_OF_PERICENTER":112.155,"MEAN_ANOMALY":247.9561,"EPHEMERIS_TYPE":0,"CLASSIFICATION_TYPE":"U","NORAD_CAT_ID":47894,"ELEMENT_SET_NO":999,"REV_AT_EPOCH":27621,"BSTAR":0.00060374022,"MEAN_MOTION_DOT":0.00017403,"MEAN_MOTION_DDOT":0},{"OBJECT_NAME":"HERMES-3","OBJECT_ID":"2025-052BR","EPOCH":"2026-03-09T22:30:01.073952","MEAN_MOTION":15.30039786,"ECCENTRICITY":0.00079928,"INCLINATION":97.3987,"RA_OF_ASC_NODE":324.6131,"ARG_OF_PERICENTER":112.9583,"MEAN_ANOMALY":247.2502,"EPHEMERIS_TYPE":0,"CLASSIFICATION_TYPE":"U","NORAD_CAT_ID":63835,"ELEMENT_SET_NO":999,"REV_AT_EPOCH":5486,"BSTAR":0.0006995793,"MEAN_MOTION_DOT":0.00020316,"MEAN_MOTION_DDOT":0}]
