STARLINK-2354           
1 47894U 21021AL  26068.87259989  .00017403  00000+0  60374-3 0  9994
2 47894  53.1533 267.2753 0001044 112.1550 247.9561 15.29905417276215
HERMES-3                
1 63835U 25052BR  26068.93751242  .00020316  00000+0  69958-3 0  9995
2 63835  97.3987 324.6131 0007993 112.9583 247.2502 15.30039785 54863
